start=new Date('2023-05-13T00:00:00.000Z').valueOf();
sats=[{"OBJECT_TYPE":"PAYLOAD","MEAN_MOTION_DOT":"0.00002307","APOAPSIS":"540.540","OBJECT_NAME":"STARLINK-3301","MEAN_MOTION":"15.08844743","TIME_SYSTEM":"UTC","MEAN_ANOMALY":"278.7858","SITE":"AFWTR","CENTER_NAME":"EARTH","PERIOD":"95.437","PERIAPSIS":"538.922","LAUNCH_DATE":"2021-12-18","REV_AT_EPOCH":"8070","ARG_OF_PERICENTER":"81.3267","OBJECT_ID":"2021-125P","ELEMENT_SET_NO":"999","INCLINATION":"53.2147","SEMIMAJOR_AXIS":"6917.866","REF_FRAME":"TEME","BSTAR":"0.00016295000000","RA_OF_ASC_NODE":"205.0563","GP_ID":"231669967","ECCENTRICITY":"0.00011700","FILE":"3905921","TLE_LINE1":"1 50169U 21125P   23131.99792773  .00002307  00000-0  16295-3 0  9993","DECAY_DATE":null,"MEAN_MOTION_DDOT":"0.0000000000000","EPOCH":"2023-05-11T23:57:00.955872","CLASSIFICATION_TYPE":"U","TLE_LINE2":"2 50169  53.2147 205.0563 0001170  81.3267 278.7858 15.08844743 80706","MEAN_ELEMENT_THEORY":"SGP4","COUNTRY_CODE":"US","RCS_SIZE":"LARGE","NORAD_CAT_ID":"50169","EPHEMERIS_TYPE":"0"},{"MEAN_MOTION":"15.08839358","PERIOD":"95.438","CENTER_NAME":"EARTH","SITE":"AFWTR","MEAN_ANOMALY":"282.8668","TIME_SYSTEM":"UTC","OBJECT_TYPE":"PAYLOAD","OBJECT_NAME":"STARLINK-3245","APOAPSIS":"540.213","MEAN_MOTION_DOT":"0.00000511","REF_FRAME":"TEME","SEMIMAJOR_AXIS":"6917.882","BSTAR":"0.00005016300000","RA_OF_ASC_NODE":"201.0832","REV_AT_EPOCH":"8082","ARG_OF_PERICENTER":"77.2399","LAUNCH_DATE":"2021-12-18","PERIAPSIS":"539.282","ELEMENT_SET_NO":"999","INCLINATION":"53.2149","OBJECT_ID":"2021-125Q","DECAY_DATE":null,"MEAN_MOTION_DDOT":"0.0000000000000","EPOCH":"2023-05-12T21:08:49.665696","FILE":"3906381","ECCENTRICITY":"0.00006730","GP_ID":"231708285","TLE_LINE1":"1 50170U 21125Q   23132.88113039  .00000511  00000-0  50163-4 0  9994","EPHEMERIS_TYPE":"0","MEAN_ELEMENT_THEORY":"SGP4","COUNTRY_CODE":"US","TLE_LINE2":"2 50170  53.2149 201.0832 0000673  77.2399 282.8668 15.08839358 80826","CLASSIFICATION_TYPE":"U","NORAD_CAT_ID":"50170","RCS_SIZE":"LARGE"},{"TLE_LINE1":"1 50171U 21125R   23132.96208889  .00001162  00000-0  91095-4 0  9994","FILE":"3906352","ECCENTRICITY":"0.00011500","GP_ID":"231685136","DECAY_DATE":null,"EPOCH":"2023-05-12T23:05:24.480096","MEAN_MOTION_DDOT":"0.0000000000000","NORAD_CAT_ID":"50171","RCS_SIZE":"LARGE","COUNTRY_CODE":"US","MEAN_ELEMENT_THEORY":"SGP4","TLE_LINE2":"2 50171  53.2172 200.7238 0001150 105.7057 254.4062 15.08840574 80351","CLASSIFICATION_TYPE":"U","EPHEMERIS_TYPE":"0","OBJECT_NAME":"STARLINK-3286","APOAPSIS":"540.539","MEAN_MOTION_DOT":"0.00001162","OBJECT_TYPE":"PAYLOAD","PERIOD":"95.438","CENTER_NAME":"EARTH","SITE":"AFWTR","TIME_SYSTEM":"UTC","MEAN_ANOMALY":"254.4062","MEAN_MOTION":"15.08840574","ELEMENT_SET_NO":"999","INCLINATION":"53.2172","OBJECT_ID":"2021-125R","ARG_OF_PERICENTER":"105.7057","REV_AT_EPOCH":"8035","LAUNCH_DATE":"2021-12-18","PERIAPSIS":"538.948","BSTAR":"0.00009109500000","RA_OF_ASC_NODE":"200.7238","SEMIMAJOR_AXIS":"6917.879","REF_FRAME":"TEME"},{"SEMIMAJOR_AXIS":"6917.889","REF_FRAME":"TEME","BSTAR":"0.00009316500000","RA_OF_ASC_NODE":"203.4973","PERIAPSIS":"538.809","LAUNCH_DATE":"2021-12-18","ARG_OF_PERICENTER":"82.7804","REV_AT_EPOCH":"8026","OBJECT_ID":"2021-125S","ELEMENT_SET_NO":"999","INCLINATION":"53.2149","MEAN_MOTION":"15.08837300","TIME_SYSTEM":"UTC","MEAN_ANOMALY":"277.3343","SITE":"AFWTR","CENTER_NAME":"EARTH","PERIOD":"95.438","OBJECT_TYPE":"PAYLOAD","MEAN_MOTION_DOT":"0.00001195","APOAPSIS":"540.699","OBJECT_NAME":"STARLINK-3287","EPHEMERIS_TYPE":"0","CLASSIFICATION_TYPE":"U","TLE_LINE2":"2 50172  53.2149 203.4973 0001366  82.7804 277.3343 15.08837300 80264","MEAN_ELEMENT_THEORY":"SGP4","COUNTRY_CODE":"US","RCS_SIZE":"LARGE","NORAD_CAT_ID":"50172","MEAN_MOTION_DDOT":"0.0000000000000","DECAY_DATE":null,"EPOCH":"2023-05-12T08:15:08.870688","GP_ID":"231685132","ECCENTRICITY":"0.00013660","FILE":"3906352","TLE_LINE1":"1 50172U 21125S   23132.34385267  .00001195  00000-0  93165-4 0  9999"},{"INCLINATION":"53.2150","ELEMENT_SET_NO":"999","OBJECT_ID":"2021-125T","ARG_OF_PERICENTER":"75.3673","REV_AT_EPOCH":"8090","PERIAPSIS":"538.761","LAUNCH_DATE":"2021-12-18","RA_OF_ASC_NODE":"193.4138","BSTAR":"0.00004403700000","SEMIMAJOR_AXIS":"6917.892","REF_FRAME":"TEME","OBJECT_NAME":"STARLINK-3289","MEAN_MOTION_DOT":"0.00000413","APOAPSIS":"540.752","OBJECT_TYPE":"PAYLOAD","SITE":"AFWTR","CENTER_NAME":"EARTH","PERIOD":"95.438","MEAN_ANOMALY":"284.7479","TIME_SYSTEM":"UTC","MEAN_MOTION":"15.08836217","RCS_SIZE":"LARGE","NORAD_CAT_ID":"50173","TLE_LINE2":"2 50173  53.2150 193.4138 0001439  75.3673 284.7479 15.08836217 80900","COUNTRY_CODE":"US","MEAN_ELEMENT_THEORY":"SGP4","CLASSIFICATION_TYPE":"U","EPHEMERIS_TYPE":"0","TLE_LINE1":"1 50173U 21125T   23132.37790210  .00000413  00000-0  44037-4 0  9997","FILE":"3906381","GP_ID":"231707039","ECCENTRICITY":"0.00014390","MEAN_MOTION_DDOT":"0.0000000000000","DECAY_DATE":null,"EPOCH":"2023-05-12T09:04:10.741440"},{"MEAN_MOTION_DDOT":"0.0000000000000","DECAY_DATE":null,"EPOCH":"2023-05-12T19:06:58.335264","TLE_LINE1":"1 50174U 21125U   23132.79650851  .00012391  00000-0  79579-3 0  9996","FILE":"3906381","ECCENTRICITY":"0.00012920","GP_ID":"231707786","EPHEMERIS_TYPE":"0","NORAD_CAT_ID":"50174","RCS_SIZE":"LARGE","COUNTRY_CODE":"US","MEAN_ELEMENT_THEORY":"SGP4","TLE_LINE2":"2 50174  53.2160 201.4724 0001292  74.6796 285.4338 15.08813859 80862","CLASSIFICATION_TYPE":"U","PERIOD":"95.439","SITE":"AFWTR","CENTER_NAME":"EARTH","MEAN_ANOMALY":"285.4338","TIME_SYSTEM":"UTC","MEAN_MOTION":"15.08813859","OBJECT_NAME":"STARLINK-3292","APOAPSIS":"540.719","MEAN_MOTION_DOT":"0.00012391","OBJECT_TYPE":"PAYLOAD","RA_OF_ASC_NODE":"201.4724","BSTAR":"0.00079579000000","SEMIMAJOR_AXIS":"6917.960","REF_FRAME":"TEME","INCLINATION":"53.2160","ELEMENT_SET_NO":"999","OBJECT_ID":"2021-125U","REV_AT_EPOCH":"8086","ARG_OF_PERICENTER":"74.6796","LAUNCH_DATE":"2021-12-18","PERIAPSIS":"538.931"},{"EPHEMERIS_TYPE":"0","RCS_SIZE":"LARGE","NORAD_CAT_ID":"50175","CLASSIFICATION_TYPE":"U","TLE_LINE2":"2 50175  53.2154 201.0663 0001021  88.3269 271.7840 15.08838677 80839","COUNTRY_CODE":"US","MEAN_ELEMENT_THEORY":"SGP4","DECAY_DATE":null,"MEAN_MOTION_DDOT":"0.0000000000000","EPOCH":"2023-05-12T21:14:07.645344","TLE_LINE1":"1 50175U 21125V   23132.88481071  .00000347  00000-0  39866-4 0  9997","GP_ID":"231708038","ECCENTRICITY":"0.00010210","FILE":"3906381","RA_OF_ASC_NODE":"201.0663","BSTAR":"0.00003986600000","SEMIMAJOR_AXIS":"6917.884","REF_FRAME":"TEME","OBJECT_ID":"2021-125V","ELEMENT_SET_NO":"999","INCLINATION":"53.2154","PERIAPSIS":"539.043","LAUNCH_DATE":"2021-12-18","ARG_OF_PERICENTER":"88.3269","REV_AT_EPOCH":"8083","TIME_SYSTEM":"UTC","MEAN_ANOMALY":"271.7840","CENTER_NAME":"EARTH","SITE":"AFWTR","PERIOD":"95.438","MEAN_MOTION":"15.08838677","MEAN_MOTION_DOT":"0.00000347","APOAPSIS":"540.456","OBJECT_NAME":"STARLINK-3291","OBJECT_TYPE":"PAYLOAD"},{"DECAY_DATE":null,"EPOCH":"2023-05-12T08:04:33.346848","MEAN_MOTION_DDOT":"0.0000000000000","GP_ID":"231707289","ECCENTRICITY":"0.00011490","FILE":"3906381","TLE_LINE1":"1 50176U 21125W   23132.33649707  .00004354  00000-0  29155-3 0  9991","EPHEMERIS_TYPE":"0","CLASSIFICATION_TYPE":"U","TLE_LINE2":"2 50176  53.2152 203.5335 0001149  99.1915 260.9207 15.08829798 80796","MEAN_ELEMENT_THEORY":"SGP4","COUNTRY_CODE":"US","RCS_SIZE":"LARGE","NORAD_CAT_ID":"50176","MEAN_MOTION":"15.08829798","TIME_SYSTEM":"UTC","MEAN_ANOMALY":"260.9207","CENTER_NAME":"EARTH","SITE":"AFWTR","PERIOD":"95.438","OBJECT_TYPE":"PAYLOAD","MEAN_MOTION_DOT":"0.00004354","APOAPSIS":"540.571","OBJECT_NAME":"STARLINK-3293","SEMIMAJOR_AXIS":"6917.912","REF_FRAME":"TEME","BSTAR":"0.00029155000000","RA_OF_ASC_NODE":"203.5335","PERIAPSIS":"538.982","LAUNCH_DATE":"2021-12-18","REV_AT_EPOCH":"8079","ARG_OF_PERICENTER":"99.1915","OBJECT_ID":"2021-125W","ELEMENT_SET_NO":"999","INCLINATION":"53.2152"},{"PERIAPSIS":"538.973","LAUNCH_DATE":"2021-12-18","ARG_OF_PERICENTER":"76.2494","REV_AT_EPOCH":"8083","OBJECT_ID":"2021-125X","ELEMENT_SET_NO":"999","INCLINATION":"53.2152","SEMIMAJOR_AXIS":"6917.867","REF_FRAME":"TEME","BSTAR":"0.00018665000000","RA_OF_ASC_NODE":"201.1018","OBJECT_TYPE":"PAYLOAD","MEAN_MOTION_DOT":"0.00002684","APOAPSIS":"540.491","OBJECT_NAME":"STARLINK-3282","MEAN_MOTION":"15.08844266","MEAN_ANOMALY":"283.8620","TIME_SYSTEM":"UTC","SITE":"AFWTR","CENTER_NAME":"EARTH","PERIOD":"95.437","CLASSIFICATION_TYPE":"U","TLE_LINE2":"2 50177  53.2152 201.1018 0001097  76.2494 283.8620 15.08844266 80834","COUNTRY_CODE":"US","MEAN_ELEMENT_THEORY":"SGP4","RCS_SIZE":"LARGE","NORAD_CAT_ID":"50177","EPHEMERIS_TYPE":"0","GP_ID":"231707539","ECCENTRICITY":"0.00010970","FILE":"3906381","TLE_LINE1":"1 50177U 21125X   23132.87745023  .00002684  00000-0  18665-3 0  9997","EPOCH":"2023-05-12T21:03:31.699872","DECAY_DATE":null,"MEAN_MOTION_DDOT":"0.0000000000000"},{"OBJECT_NAME":"STARLINK-3284","MEAN_MOTION_DOT":"-0.00000703","APOAPSIS":"540.684","OBJECT_TYPE":"PAYLOAD","SITE":"AFWTR","CENTER_NAME":"EARTH","PERIOD":"95.438","MEAN_ANOMALY":"249.3365","TIME_SYSTEM":"UTC","MEAN_MOTION":"15.08836640","ELEMENT_SET_NO":"999","INCLINATION":"53.2160","OBJECT_ID":"2021-125Y","ARG_OF_PERICENTER":"110.7771","REV_AT_EPOCH":"8079","PERIAPSIS":"538.827","LAUNCH_DATE":"2021-12-18","RA_OF_ASC_NODE":"203.2868","BSTAR":"-0.00002609500000","SEMIMAJOR_AXIS":"6917.891","REF_FRAME":"TEME","TLE_LINE1":"1 50178U 21125Y   23132.35950958 -.00000703  00000-0 -26095-4 0  9995","FILE":"3906381","GP_ID":"231708286","ECCENTRICITY":"0.00013420","MEAN_MOTION_DDOT":"0.0000000000000","DECAY_DATE":null,"EPOCH":"2023-05-12T08:37:41.627712","RCS_SIZE":"LARGE","NORAD_CAT_ID":"50178","TLE_LINE2":"2 50178  53.2160 203.2868 0001342 110.7771 249.3365 15.08836640 80790","COUNTRY_CODE":"US","MEAN_ELEMENT_THEORY":"SGP4","CLASSIFICATION_TYPE":"U","EPHEMERIS_TYPE":"0"}];
